{
  "norad_id": 68234,
  "name": "STARLINK-37101",
  "history": [
    {
      "epoch": "2026-03-28T22:00:01.999584Z",
      "apogee_km": 328.6959500845387,
      "perigee_km": 327.2910157483675,
      "latitude_deg": 32.36938193437064,
      "longitude_deg": 88.14119880498222,
      "height_km": 329.4641801551474,
      "semi_major_axis_km": 6706.130482916453,
      "eccentricity": 0.00010475,
      "inclination_deg": 53.1584,
      "raan_deg": 216.3002,
      "arg_perigee_deg": 68.8104,
      "mean_anomaly_deg": 333.0337,
      "mean_motion_rev_day": 15.80864922
    },
    {
      "epoch": "2026-03-29T03:53:37.306176Z",
      "apogee_km": 327.44753858577496,
      "perigee_km": 327.14042984669686,
      "latitude_deg": 2.5853358515802913e-05,
      "longitude_deg": -29.909512417959693,
      "height_km": 328.2293091699866,
      "semi_major_axis_km": 6705.430984216236,
      "eccentricity": 2.29e-05,
      "inclination_deg": 53.1588,
      "raan_deg": 215.0682,
      "arg_perigee_deg": 264.1209,
      "mean_anomaly_deg": 95.9788,
      "mean_motion_rev_day": 15.81112298
    },
    {
      "epoch": "2026-03-30T04:10:12.461376Z",
      "apogee_km": 328.62520675889573,
      "perigee_km": 327.0627131952215,
      "latitude_deg": 5.3147240500111353e-05,
      "longitude_deg": -40.12256909355177,
      "height_km": 328.94945942207517,
      "semi_major_axis_km": 6705.980959977058,
      "eccentricity": 0.0001165,
      "inclination_deg": 53.1591,
      "raan_deg": 209.9986,
      "arg_perigee_deg": 103.8988,
      "mean_anomaly_deg": 256.2165,
      "mean_motion_rev_day": 15.80917795
    },
    {
      "epoch": "2026-03-30T05:41:14.847360Z",
      "apogee_km": 328.53577550117825,
      "perigee_km": 327.0180930595734,
      "latitude_deg": 3.5542077488638735e-05,
      "longitude_deg": -63.261438241678974,
      "height_km": 328.43647734903544,
      "semi_major_axis_km": 6705.9139342803755,
      "eccentricity": 0.00011316,
      "inclination_deg": 53.1588,
      "raan_deg": 209.682,
      "arg_perigee_deg": 70.0937,
      "mean_anomaly_deg": 290.0208,
      "mean_motion_rev_day": 15.80941497
    },
    {
      "epoch": "2026-03-30T13:16:25.515840Z",
      "apogee_km": 328.3345693613892,
      "perigee_km": 326.9423162639523,
      "latitude_deg": -9.583890776718158e-06,
      "longitude_deg": -178.9515816337607,
      "height_km": 328.4896448283594,
      "semi_major_axis_km": 6705.775442812671,
      "eccentricity": 0.00010381,
      "inclination_deg": 53.159,
      "raan_deg": 208.0979,
      "arg_perigee_deg": 84.4936,
      "mean_anomaly_deg": 275.6205,
      "mean_motion_rev_day": 15.80990473
    },
    {
      "epoch": "2026-03-30T19:20:34.285632Z",
      "apogee_km": 328.96630708956945,
      "perigee_km": 326.47441049504323,
      "latitude_deg": -8.995364212034476e-06,
      "longitude_deg": 88.49522910491916,
      "height_km": 328.1056776756414,
      "semi_major_axis_km": 6705.8573587923065,
      "eccentricity": 0.0001858,
      "inclination_deg": 53.159,
      "raan_deg": 206.8305,
      "arg_perigee_deg": 64.7345,
      "mean_anomaly_deg": 295.387,
      "mean_motion_rev_day": 15.80961504
    }
  ]
}